OBJECT_NAME,OBJECT_ID,EPOCH,MEAN_MOTION,ECCENTRICITY,INCLINATION,RA_OF_ASC_NODE,ARG_OF_PERICENTER,MEAN_ANOMALY,EPHEMERIS_TYPE,CLASSIFICATION_TYPE,NORAD_CAT_ID,ELEMENT_SET_NO,REV_AT_EPOCH,BSTAR,MEAN_MOTION_DOT,MEAN_MOTION_DDOT
BEIDOU-2 G6,2012-059A,2026-06-12T20:26:31.873920,1.00273022,.00097233,4.4090,73.5707,324.5872,253.6772,0,U,38953,999,4986,0,-.165E-5,0
LUCH-5B,2012-061A,2026-06-12T23:23:12.366816,1.00272671,.00023465,10.4721,49.9205,149.8007,36.0976,0,U,38977,999,4956,0,-.133E-5,0
STAR ONE C3,2012-062A,2026-06-13T05:31:25.468896,1.00271926,.00021565,0.0241,61.6821,33.0820,174.6552,0,U,38991,999,4972,0,-.237E-5,0
EUTELSAT 21B,2012-062B,2026-06-13T06:24:42.490080,1.00273257,.00030727,0.0660,3.8023,76.8981,298.6429,0,U,38992,999,4978,0,.142E-5,0
ECHOSTAR 16,2012-065A,2026-06-12T19:45:05.644800,1.00270199,.00019915,0.0047,69.8365,10.8676,55.2229,0,U,39008,999,4960,0,-.268E-5,0
YAOGAN-16 01A,2012-066A,2026-06-12T17:17:43.475712,13.45516297,.04350599,63.3547,301.3401,27.1052,335.1980,0,U,39011,999,66554,.13169356E-4,-.77E-6,0
YAOGAN-16 01B,2012-066B,2026-06-12T17:24:18.708192,13.45513072,.04352596,63.3552,301.5490,26.8478,335.4369,0,U,39012,999,66550,-.1745891E-5,-.93E-6,0
YAOGAN-16 01C,2012-066C,2026-06-13T05:53:14.149824,13.45505466,.0435394,63.3551,299.7008,26.4151,335.8373,0,U,39013,999,66560,.13718472E-3,.54E-6,0
PLEIADES 1B,2012-068A,2026-06-13T07:21:18.641664,14.58557527,.0001653,98.1950,239.4114,94.8271,265.3117,0,U,39019,999,72028,.15770889E-4,.28E-6,0
EUTELSAT 70B,2012-069A,2026-06-13T01:30:38.630304,1.00271246,.00039727,0.0624,6.9113,67.7617,279.8558,0,U,39020,999,4946,0,-.3E-6,0
YAMAL 402,2012-070A,2026-06-13T01:26:09.059712,1.00269471,.00036159,1.2540,84.2086,357.6242,255.9910,0,U,39022,999,4935,0,.99E-6,0
GOKTURK 2,2012-073A,2026-06-13T06:47:53.788416,14.75538110,.00017459,97.6825,1.9108,57.9208,302.2172,0,U,39030,999,72393,.27438199E-4,.14E-5,0
SKYNET 5D,2012-075A,2026-06-13T01:25:39.108288,1.00268626,.00034452,0.0691,340.7320,109.8914,244.9677,0,U,39034,999,4911,0,.113E-5,0
MEXSAT 3,2012-075B,2026-06-13T04:47:38.730912,1.00275517,.00007627,0.0181,20.1175,30.9801,167.5695,0,U,39035,999,701,0,-.14E-6,0
COSMOS 2482 (RODNIK-S 4),2013-001A,2026-06-13T06:09:32.678208,12.42995891,.00280923,82.4989,222.8029,36.1329,324.1642,0,U,39057,999,60822,-.17831031E-3,-.15E-6,0
COSMOS 2483 (RODNIK-S 5),2013-001B,2026-06-13T06:08:24.402336,12.44024662,.00169857,82.5000,217.3572,26.0274,334.1656,0,U,39058,999,60110,-.10912776E-3,-.5E-7,0
COSMOS 2484 (RODNIK-S 6),2013-001C,2026-06-13T06:46:38.300736,12.42938769,.00270377,82.5023,224.3199,44.9201,315.4061,0,U,39059,999,60807,.16567752E-3,.33E-6,0
TDRS 11,2013-004A,2026-06-13T07:45:57.032928,1.00268125,.00055854,3.5153,31.2006,18.6878,153.8607,0,U,39070,999,4665,0,.88E-6,0
GLOBALSTAR M097,2013-005A,2026-06-12T13:40:59.742624,12.62247214,.00003805,52.0050,257.3914,126.0214,234.0688,0,U,39072,999,61632,.4255947E-4,-.96E-6,0
GLOBALSTAR M093,2013-005B,2026-06-12T22:32:38.911200,12.62265829,.00002402,52.0102,249.6128,102.9215,257.1679,0,U,39073,999,61632,.10759433E-3,-.84E-6,0
GLOBALSTAR M094,2013-005C,2026-06-13T06:08:36.896640,12.62268612,.00003042,51.9932,162.7684,351.3928,8.6934,0,U,39074,999,61797,.497581E-4,-.95E-6,0
GLOBALSTAR M096,2013-005D,2026-06-13T06:28:00.450624,12.62265561,.00000864,52.0054,211.5271,185.4586,174.6279,0,U,39075,999,61689,.18320101E-3,-.71E-6,0
GLOBALSTAR M078,2013-005E,2026-06-12T16:30:56.501280,12.62258157,.00005383,51.9889,297.3109,210.7974,149.2861,0,U,39076,999,61544,-.47438621E-3,-.189E-5,0
GLOBALSTAR M095,2013-005F,2026-06-13T00:45:34.949664,12.62263365,.00003097,52.0094,293.8636,126.3907,233.6988,0,U,39077,999,61534,-.6073125E-5,-.105E-5,0
AMAZONAS 3,2013-006A,2026-06-13T06:01:07.251168,1.00273799,.00017724,0.0388,233.4137,254.1978,163.2158,0,U,39078,999,4487,0,-.27E-5,0
AZERSPACE 1,2013-006B,2026-06-13T03:06:17.047008,1.00273674,.00013867,0.0101,315.6916,166.9621,231.3798,0,U,39079,999,4876,0,.146E-5,0
LANDSAT 8,2013-008A,2026-06-13T05:56:55.385664,14.57092137,.00013772,98.2301,234.4297,93.5704,266.5652,0,U,39084,999,69732,.8233782E-4,.325E-5,0
SARAL,2013-009A,2026-06-13T06:28:52.707072,14.32855009,.00009061,98.5556,350.8869,332.3852,27.7284,0,U,39086,999,69504,.48255737E-4,.88E-6,0
SAPPHIRE,2013-009C,2026-06-13T06:11:15.854496,14.35239534,.00099991,98.4259,343.8070,259.6984,100.3074,0,U,39088,999,69601,.52085158E-4,.106E-5,0
