BEIDOU-2 G6             
1 38953U 12059A   26163.85175780 -.00000165  00000+0  00000+0 0  9995
2 38953   4.4090  73.5707 0009723 324.5872 253.6772  1.00273022 49864
LUCH-5B                 
1 38977U 12061A   26163.97444869 -.00000133  00000+0  00000+0 0  9999
2 38977  10.4721  49.9205 0002346 149.8007  36.0976  1.00272671 49565
STAR ONE C3             
1 38991U 12062A   26164.23015589 -.00000237  00000+0  00000+0 0  9994
2 38991   0.0241  61.6821 0002156  33.0820 174.6552  1.00271926 49723
EUTELSAT 21B            
1 38992U 12062B   26164.26715845  .00000142  00000+0  00000+0 0  9994
2 38992   0.0660   3.8023 0003072  76.8981 298.6429  1.00273257 49787
ECHOSTAR 16             
1 39008U 12065A   26163.82298200 -.00000268  00000+0  00000+0 0  9998
2 39008   0.0047  69.8365 0001991  10.8676  55.2229  1.00270199 49601
YAOGAN-16 01A           
1 39011U 12066A   26163.72064208 -.00000077  00000+0  13169-4 0  9994
2 39011  63.3547 301.3401 0435059  27.1052 335.1980 13.45516297665547
YAOGAN-16 01B           
1 39012U 12066B   26163.72521653 -.00000093  00000+0 -17459-5 0  9993
2 39012  63.3552 301.5490 0435259  26.8478 335.4369 13.45513072665502
YAOGAN-16 01C           
1 39013U 12066C   26164.24530266  .00000054  00000+0  13718-3 0  9999
2 39013  63.3551 299.7008 0435394  26.4151 335.8373 13.45505466665607
PLEIADES 1B             
1 39019U 12068A   26164.30646576  .00000028  00000+0  15771-4 0  9999
2 39019  98.1950 239.4114 0001653  94.8271 265.3117 14.58557527720289
EUTELSAT 70B            
1 39020U 12069A   26164.06294711 -.00000030  00000+0  00000+0 0  9993
2 39020   0.0624   6.9113 0003972  67.7617 279.8558  1.00271246 49463
YAMAL 402               
1 39022U 12070A   26164.05982708  .00000099  00000+0  00000+0 0  9990
2 39022   1.2540  84.2086 0003615 357.6242 255.9910  1.00269471 49354
GOKTURK 2               
1 39030U 12073A   26164.28326144  .00000140  00000+0  27438-4 0  9999
2 39030  97.6825   1.9108 0001745  57.9208 302.2172 14.75538110723937
SKYNET 5D               
1 39034U 12075A   26164.05948042  .00000113  00000+0  00000+0 0  9998
2 39034   0.0691 340.7320 0003445 109.8914 244.9677  1.00268626 49119
MEXSAT 3                
1 39035U 12075B   26164.19975383 -.00000014  00000+0  00000+0 0  9993
2 39035   0.0181  20.1175 0000762  30.9801 167.5695  1.00275517  7019
COSMOS 2482 (RODNIK-S 4)
1 39057U 13001A   26164.25662822 -.00000015  00000+0 -17831-3 0  9991
2 39057  82.4989 222.8029 0028092  36.1329 324.1642 12.42995891608226
COSMOS 2483 (RODNIK-S 5)
1 39058U 13001B   26164.25583799 -.00000005  00000+0 -10913-3 0  9990
2 39058  82.5000 217.3572 0016985  26.0274 334.1656 12.44024662601106
COSMOS 2484 (RODNIK-S 6)
1 39059U 13001C   26164.28238774  .00000033  00000+0  16568-3 0  9995
2 39059  82.5023 224.3199 0027037  44.9201 315.4061 12.42938769608079
TDRS 11                 
1 39070U 13004A   26164.32357677  .00000088  00000+0  00000+0 0  9990
2 39070   3.5153  31.2006 0005585  18.6878 153.8607  1.00268125 46657
GLOBALSTAR M097         
1 39072U 13005A   26163.57013591 -.00000096  00000+0  42559-4 0  9993
2 39072  52.0050 257.3914 0000380 126.0214 234.0688 12.62247214616323
GLOBALSTAR M093         
1 39073U 13005B   26163.93933925 -.00000084  00000+0  10759-3 0  9999
2 39073  52.0102 249.6128 0000240 102.9215 257.1679 12.62265829616320
GLOBALSTAR M094         
1 39074U 13005C   26164.25598260 -.00000095  00000+0  49758-4 0  9999
2 39074  51.9932 162.7684 0000304 351.3928   8.6934 12.62268612617972
GLOBALSTAR M096         
1 39075U 13005D   26164.26944966 -.00000071  00000+0  18320-3 0  9993
2 39075  52.0054 211.5271 0000086 185.4586 174.6279 12.62265561616894
GLOBALSTAR M078         
1 39076U 13005E   26163.68815395 -.00000189  00000+0 -47439-3 0  9996
2 39076  51.9889 297.3109 0000538 210.7974 149.2861 12.62258157615444
GLOBALSTAR M095         
1 39077U 13005F   26164.03165451 -.00000105  00000+0 -60731-5 0  9998
2 39077  52.0094 293.8636 0000309 126.3907 233.6988 12.62263365615349
AMAZONAS 3              
1 39078U 13006A   26164.25077837 -.00000270  00000+0  00000+0 0  9993
2 39078   0.0388 233.4137 0001772 254.1978 163.2158  1.00273799 44871
AZERSPACE 1             
1 39079U 13006B   26164.12936397  .00000146  00000+0  00000+0 0  9996
2 39079   0.0101 315.6916 0001386 166.9621 231.3798  1.00273674 48760
LANDSAT 8               
1 39084U 13008A   26164.24786326  .00000325  00000+0  82338-4 0  9990
2 39084  98.2301 234.4297 0001377  93.5704 266.5652 14.57092137697324
SARAL                   
1 39086U 13009A   26164.27005448  .00000088  00000+0  48256-4 0  9992
2 39086  98.5556 350.8869 0000906 332.3852  27.7284 14.32855009695047
SAPPHIRE                
1 39088U 13009C   26164.25782239  .00000106  00000+0  52085-4 0  9998
2 39088  98.4259 343.8070 0009999 259.6984 100.3074 14.35239534696017
